NORAD_CAT_ID,OBJECT_NAME,OBJECT_TYPE,EPOCH,MEAN_MOTION,ECCENTRICITY,INCLINATION,RA_OF_ASC_NODE,ARG_OF_PERICENTER,MEAN_ANOMALY,BSTAR,MEAN_MOTION_DOT,MEAN_MOTION_DDOT,TLE_LINE0,TLE_LINE1,TLE_LINE2,SEMIMAJOR_AXIS,PERIOD,APOGEE,PERIGEE,DECAYED
51872.0,STARLINK-3554,PAYLOAD,2024-06-18 14:32:42,15.08842037,0.0001869,53.2169,313.1839,114.9911,245.1275,0.00012706,1.735e-05,0.0,0 STARLINK-3554,1 51872U 22022W   24170.60604206  .00001735  00000-0  12706-3 0  9994,2 51872  53.2169 313.1839 0001869 114.9911 245.1275 15.08842037128149,6917.874,95.437,541.032,538.446,0.0
51872.0,STARLINK-3554,PAYLOAD,2024-06-18 19:18:51,15.08841298,0.0001436,53.2181,312.2957,92.8057,267.3099,4.3495e-05,4.04e-06,0.0,0 STARLINK-3554,1 51872U 22022W   24170.80476316  .00000404  00000-0  43495-4 0  9997,2 51872  53.2181 312.2957 0001436  92.8057 267.3099 15.08841298128170,6917.876,95.437,540.735,538.748,0.0
51872.0,STARLINK-3554,PAYLOAD,2024-06-19 12:48:06,15.08834479,0.0001429,53.2177,309.0231,98.7742,261.3412,4.5469e-05,4.36e-06,0.0,0 STARLINK-3554,1 51872U 22022W   24171.53340831  .00000436  00000-0  45469-4 0  9998,2 51872  53.2177 309.0231 0001429  98.7742 261.3412 15.08834479128280,6917.897,95.438,540.751,538.774,0.0
51872.0,STARLINK-3554,PAYLOAD,2024-06-19 14:23:29,15.08832695,0.0001286,53.2178,308.7247,98.0964,262.0174,4.2081e-05,3.82e-06,0.0,0 STARLINK-3554,1 51872U 22022W   24171.59965094  .00000382  00000-0  42081-4 0  9995,2 51872  53.2178 308.7247 0001286  98.0964 262.0174 15.08832695128296,6917.903,95.438,540.657,538.878,0.0
51872.0,STARLINK-3554,PAYLOAD,2024-06-19 15:58:52,15.08835289,0.0001563,53.2166,308.4277,95.9268,264.1902,-7.7649e-05,-1.523e-05,0.0,0 STARLINK-3554,1 51872U 22022W   24171.66588855 -.00001523  00000-0 -77649-4 0  9997,2 51872  53.2166 308.4277 0001563  95.9268 264.1902 15.08835289128300,6917.895,95.438,540.841,538.679,0.0
51872.0,STARLINK-3554,PAYLOAD,2024-06-20 14:14:16,15.08845381,0.0001428,53.2178,304.2652,94.7179,265.3976,-0.00020795,-3.596e-05,0.0,0 STARLINK-3554,1 51872U 22022W   24172.59324567 -.00003596  00000-0 -20795-3 0  9999,2 51872  53.2178 304.2652 0001428  94.7179 265.3976 15.08845381128445,6917.864,95.437,540.717,538.741,0.0
51872.0,STARLINK-3554,PAYLOAD,2024-06-20 19:00:26,15.08836701,0.0001239,53.2176,303.3729,91.5324,268.581,0.00013053,1.79e-05,0.0,0 STARLINK-3554,1 51872U 22022W   24172.79197242  .00001790  00000-0  13053-3 0  9990,2 51872  53.2176 303.3729 0001239  91.5324 268.5810 15.08836701128476,6917.89,95.438,540.613,538.898,0.0
51872.0,STARLINK-3554,PAYLOAD,2024-06-21 01:21:58,15.08846959,0.0001218,53.2184,302.1891,96.6128,263.5003,0.0002039,2.959e-05,0.0,0 STARLINK-3554,1 51872U 22022W   24173.05692689  .00002959  00000-0  20390-3 0  9995,2 51872  53.2184 302.1891 0001218  96.6128 263.5003 15.08846959128517,6917.859,95.437,540.567,538.882,0.0
51872.0,STARLINK-3554,PAYLOAD,2024-06-21 12:29:41,15.08831953,0.0001298,53.2179,300.1065,97.8444,262.2695,9.3664e-05,1.203e-05,0.0,0 STARLINK-3554,1 51872U 22022W   24173.52061772  .00001203  00000-0  93664-4 0  9996,2 51872  53.2179 300.1065 0001298  97.8444 262.2695 15.08831953128582,6917.905,95.438,540.668,538.872,0.0
51872.0,STARLINK-3554,PAYLOAD,2024-06-21 14:05:04,15.08833218,0.0001334,53.218,299.8096,99.3902,260.724,0.00010884,1.444e-05,0.0,0 STARLINK-3554,1 51872U 22022W   24173.58685751  .00001444  00000-0  10884-3 0  9990,2 51872  53.2180 299.8096 0001334  99.3902 260.7240 15.08833218128595,6917.901,95.438,540.689,538.843,0.0
51872.0,STARLINK-3554,PAYLOAD,2024-06-22 13:55:51,15.08839631,0.0001407,53.2184,295.3494,102.091,258.024,0.00011966,1.617e-05,0.0,0 STARLINK-3554,1 51872U 22022W   24174.58045672  .00001617  00000-0  11966-3 0  9997,2 51872  53.2184 295.3494 0001407 102.0910 258.0240 15.08839631128746,6917.882,95.438,540.72,538.773,0.0
51872.0,STARLINK-3554,PAYLOAD,2024-06-22 18:42:00,15.08844244,0.0001325,53.2177,294.4565,98.6082,261.5061,0.00022809,3.344e-05,0.0,0 STARLINK-3554,1 51872U 22022W   24174.77917587  .00003344  00000-0  22809-3 0  9998,2 51872  53.2177 294.4565 0001325  98.6082 261.5061 15.08844244128775,6917.867,95.437,540.649,538.816,0.0
51872.0,STARLINK-3554,PAYLOAD,2024-06-23 13:46:38,15.08845152,0.0001256,53.2171,290.8871,91.9903,268.1233,0.00025268,3.736e-05,0.0,0 STARLINK-3554,1 51872U 22022W   24175.57405602  .00003736  00000-0  25268-3 0  9994,2 51872  53.2171 290.8871 0001256  91.9903 268.1233 15.08845152128896,6917.865,95.437,540.599,538.861,0.0
51872.0,STARLINK-3554,PAYLOAD,2024-06-24 12:02:02,15.08846225,0.0001214,53.2168,286.724,92.1235,267.9896,0.00016442,2.33e-05,0.0,0 STARLINK-3554,1 51872U 22022W   24176.50141405  .00002330  00000-0  16442-3 0  9999,2 51872  53.2168 286.7240 0001214  92.1235 267.9896 15.08846225129032,6917.861,95.437,540.566,538.887,0.0
51872.0,STARLINK-3554,PAYLOAD,2024-06-24 13:37:25,15.08846559,0.0001224,53.2169,286.4267,91.2395,268.8737,0.00016482,2.337e-05,0.0,0 STARLINK-3554,1 51872U 22022W   24176.56765373  .00002337  00000-0  16482-3 0  9992,2 51872  53.2169 286.4267 0001224  91.2395 268.8737 15.08846559129042,6917.86,95.437,540.572,538.879,0.0
51872.0,STARLINK-3554,PAYLOAD,2024-06-25 11:52:49,15.08840781,0.0001367,53.2169,282.2648,75.4233,284.691,7.0106e-05,8.28e-06,0.0,0 STARLINK-3554,1 51872U 22022W   24177.49501693  .00000828  00000-0  70106-4 0  9995,2 51872  53.2169 282.2648 0001367  75.4233 284.6910 15.08840781129187,6917.878,95.438,540.689,538.797,0.0
51872.0,STARLINK-3554,PAYLOAD,2024-06-25 13:28:12,15.0884151,0.0001345,53.217,281.9672,76.3464,283.7677,6.6263e-05,7.67e-06,0.0,0 STARLINK-3554,1 51872U 22022W   24177.56125699  .00000767  00000-0  66263-4 0  9992,2 51872  53.2170 281.9672 0001345  76.3464 283.7677 15.08841510129196,6917.876,95.437,540.671,538.81,0.0
51872.0,STARLINK-3554,PAYLOAD,2024-06-26 13:18:59,15.08845563,0.0001337,53.2174,277.5082,86.2176,273.8969,0.00016776,2.383e-05,0.0,0 STARLINK-3554,1 51872U 22022W   24178.55485389  .00002383  00000-0  16776-3 0  9996,2 51872  53.2174 277.5082 0001337  86.2176 273.8969 15.08845563129340,6917.863,95.437,540.653,538.803,0.0
51872.0,STARLINK-3554,PAYLOAD,2024-06-27 13:09:46,15.08836364,0.0001367,53.2171,273.0442,98.3922,261.7225,-1.1656e-05,-4.73e-06,0.0,0 STARLINK-3554,1 51872U 22022W   24179.54845780 -.00000473  00000-0 -11656-4 0  9994,2 51872  53.2171 273.0442 0001367  98.3922 261.7225 15.08836364129490,6917.892,95.438,540.702,538.811,0.0
51872.0,STARLINK-3554,PAYLOAD,2024-06-27 17:55:56,15.08837051,0.0001328,53.217,272.1524,92.0042,268.1103,1.7063e-05,-1.6e-07,0.0,0 STARLINK-3554,1 51872U 22022W   24179.74717799 -.00000016  00000-0  17063-4 0  9994,2 51872  53.2170 272.1524 0001328  92.0042 268.1103 15.08837051129525,6917.889,95.438,540.673,538.836,0.0
51872.0,STARLINK-3554,PAYLOAD,2024-06-28 13:00:33,15.08846582,0.0001254,53.2154,268.5874,84.3599,275.7536,7.3505e-05,8.82e-06,0.0,0 STARLINK-3554,1 51872U 22022W   24180.54205397  .00000882  00000-0  73505-4 0  9993,2 51872  53.2154 268.5874 0001254  84.3599 275.7536 15.08846582129649,6917.86,95.437,540.593,538.858,0.0
51872.0,STARLINK-3554,PAYLOAD,2024-06-28 17:46:42,15.08857203,0.0001354,53.2168,267.6917,77.0359,283.0784,0.00032652,4.915e-05,0.0,0 STARLINK-3554,1 51872U 22022W   24180.74076971  .00004915  00000-0  32652-3 0  9997,2 51872  53.2168 267.6917 0001354  77.0359 283.0784 15.08857203129678,6917.828,95.436,540.629,538.756,0.0
51872.0,STARLINK-3554,PAYLOAD,2024-06-28 22:32:51,15.08865573,0.0001233,53.2157,266.8012,78.8154,281.2976,0.00041613,6.346e-05,0.0,0 STARLINK-3554,1 51872U 22022W   24180.93948177  .00006346  00000-0  41613-3 0  9991,2 51872  53.2157 266.8012 0001233  78.8154 281.2976 15.08865573129707,6917.802,95.436,540.52,538.814,0.0
51872.0,STARLINK-3554,PAYLOAD,2024-06-29 12:51:21,15.08827425,0.0001382,53.2157,264.1266,108.3706,251.7437,-0.00014415,-2.581e-05,0.0,0 STARLINK-3554,1 51872U 22022W   24181.53566171 -.00002581  00000-0 -14415-3 0  9997,2 51872  53.2157 264.1266 0001382 108.3706 251.7437 15.08827425129793,6917.919,95.438,540.74,538.828,0.0
51872.0,STARLINK-3554,PAYLOAD,2024-06-29 14:26:44,15.08831677,0.0001291,53.2159,263.8268,95.163,264.951,-5.2044e-05,-1.116e-05,0.0,0 STARLINK-3554,1 51872U 22022W   24181.60190117 -.00001116  00000-0 -52044-4 0  9992,2 51872  53.2159 263.8268 0001291  95.1630 264.9510 15.08831677129805,6917.906,95.438,540.664,538.878,0.0
51872.0,STARLINK-3554,PAYLOAD,2024-06-30 04:45:12,15.08839732,0.0001661,53.2142,261.1527,87.1567,272.9615,0.00011607,1.56e-05,0.0,0 STARLINK-3554,1 51872U 22022W   24182.19806063  .00001560  00000-0  11607-3 0  9991,2 51872  53.2142 261.1527 0001661  87.1567 272.9615 15.08839732129891,6917.881,95.438,540.895,538.597,0.0
51872.0,STARLINK-3554,PAYLOAD,2024-06-30 14:17:31,15.08844432,0.0001518,53.2162,259.3667,88.0511,272.0655,0.00013752,1.902e-05,0.0,0 STARLINK-3554,1 51872U 22022W   24182.59549978  .00001902  00000-0  13752-3 0  9997,2 51872  53.2162 259.3667 0001518  88.0511 272.0655 15.08844432129952,6917.867,95.437,540.782,538.682,0.0
51872.0,STARLINK-3554,PAYLOAD,2024-06-30 22:14:26,15.08848458,0.0001486,53.2156,257.8804,92.1117,268.0045,0.00045331,6.935e-05,0.0,0 STARLINK-3554,1 51872U 22022W   24182.92669953  .00006935  00000-0  45331-3 0  9999,2 51872  53.2156 257.8804 0001486  92.1117 268.0045 15.08848458130001,6917.855,95.437,540.748,538.692,0.0
51872.0,STARLINK-3554,PAYLOAD,2024-07-01 12:32:55,15.08845186,0.0001285,53.2149,255.2033,101.9096,258.204,0.0006212,9.614e-05,0.0,0 STARLINK-3554,1 51872U 22022W   24183.52286337  .00009614  00000-0  62120-3 0  9999,2 51872  53.2149 255.2033 0001285 101.9096 258.2040 15.08845186130091,6917.865,95.437,540.618,538.841,0.0
51872.0,STARLINK-3554,PAYLOAD,2024-07-01 14:08:18,15.08841337,0.0001273,53.2148,254.9066,101.0289,259.0846,0.001443,0.00022753,0.0,0 STARLINK-3554,1 51872U 22022W   24183.58910483  .00022753  00000-0  14430-2 0  9990,2 51872  53.2148 254.9066 0001273 101.0289 259.0846 15.08841337130103,6917.876,95.437,540.622,538.861,0.0
